TDRS 3                  
1 19548U 88091B   26057.84610155 -.00000306  00000+0  00000+0 0  9991
2 19548  12.6852 341.7287 0044225 351.9002  78.3575  1.00261626124288
HST                     
1 20580U 90037B   26060.39460694  .00008629  00000+0  28681-3 0  9991
2 20580  28.4699  96.5806 0001584  41.9765 318.0951 15.29328400772040
TDRS 5                  
1 21639U 91054B   26059.55625491  .00000074  00000+0  00000+0 0  9998
2 21639  14.0846 354.5812 0011323 276.3077 280.2915  1.00264437126627
TDRS 6                  
1 22314U 93003B   26060.39176572 -.00000306  00000+0  00000+0 0  9999
2 22314  14.1805 357.8570 0005633 201.7522  54.5658  1.00279850121328
TDRS 7                  
1 23613U 95035B   26060.51136181 -.00000249  00000+0  00000+0 0  9991
2 23613  13.4216 348.9284 0008086  46.9634  36.4701  1.00277262112176
ISS (ZARYA)             
1 25544U 98067A   26060.44612133  .00009769  00000+0  18913-3 0  9993
2 25544  51.6323 113.1104 0008284 145.6657 214.4868 15.48380101555053
TERRA                   
1 25994U 99068A   26060.44047917  .00000536  00000+0  11830-3 0  9990
2 25994  97.9612 114.1897 0002136 172.0958 312.8190 14.61004514393870
TDRS 8                  
1 26388U 00034A   26060.50879596 -.00000208  00000+0  00000+0 0  9996
2 26388  12.5142  32.2198 0006159 306.2650  88.6951  1.00277041 94105
TIMED                   
1 26998U 01055B   26060.48200278  .00001528  00000+0  14331-3 0  9990
2 26998  74.0660  91.8406 0002899 284.9172  75.1691 14.94992301314726
AQUA                    
1 27424U 02022A   26060.48112219  .00001245  00000+0  25846-3 0  9996
2 27424  98.4159  27.6975 0000725  52.8383  58.4881 14.61953163267532
SORCE                   
1 27651U 03004A   26060.32736127  .00004521  00000+0  33981-3 0  9991
2 27651  39.9902 156.7624 0017053 352.8284   7.2264 15.03021361255661
AURA                    
1 28376U 04026A   26060.47937139  .00001236  00000+0  26105-3 0  9993
2 28376  98.3296  16.1299 0001036  76.3553 283.7763 14.61125701150484
SWIFT                   
1 28485U 04047A   26059.97015853  .00042981  00000+0  52827-3 0  9992
2 28485  20.5535 293.5160 0002690 274.7823  85.2314 15.58432639169909
THEMIS A                
1 30580U 07004A   26059.58833324 -.00000189  00000+0 -39837-2 0  9996
2 30580   6.6736 120.8159 8407555 176.3544 202.3366  0.87847049 40324
THEMIS D                
1 30797U 07004D   26060.33889906 -.00000246  00000+0  00000+0 0  9998
2 30797   6.5650  84.8926 8360002 215.1877  67.1575  0.87836176 40132
THEMIS E                
1 30798U 07004E   26060.40710604 -.00000250  00000+0  00000+0 0  9990
2 30798   4.0805 100.0922 8364000 200.9379 103.0845  0.87837925 64977
FGRST (GLAST)           
1 33053U 08029A   26060.49475789  .00004502  00000+0  17076-3 0  9994
2 33053  25.5808 231.8900 0008684 133.0095 227.1171 15.23253627979398
TDRS 11                 
1 39070U 13004A   26060.41265273  .00000064  00000+0  00000+0 0  9999
2 39070   3.3629  29.2957 0003880 349.1277 114.9417  1.00275512 45616
TDRS 12                 
1 39504U 14004A   26060.39347767 -.00000285  00000+0  00000+0 0  9994
2 39504   3.8729  17.1863 0004030 266.5187 336.2491  1.00271116 43194
GPM-CORE                
1 39574U 14009C   26060.42280598  .00015205  00000+0  32970-3 0  9990
2 39574  64.9747 309.1759 0012426 264.0109  95.9615 15.44527458681160
MMS 1                   
1 40482U 15011A   26060.58335647 -.00002243  00000+0  00000+0 0  9991
2 40482  70.7227 350.2441 8416092 165.1990 122.8739  0.28329377  1324
MMS 2                   
1 40483U 15011B   26060.58335647 -.00002244  00000+0  00000+0 0  9993
2 40483  70.7268 350.2448 8416881 165.2061 122.8536  0.28329336  1323
MMS 3                   
1 40484U 15011C   26060.58335647 -.00002243  00000+0  00000+0 0  9993
2 40484  70.7292 350.2494 8416168 165.2002 122.8627  0.28329304  1321
MMS 4                   
1 40485U 15011D   26060.58335647 -.00002243  00000+0  00000+0 0  9994
2 40485  70.7235 350.2460 8415610 165.2066 122.8515  0.28329348  1327
TDRS 13                 
1 42915U 17047A   26060.37356590 -.00000120  00000+0  00000+0 0  9994
2 42915   3.4292 359.9846 0009906 100.1234 182.0633  1.00271824 31262
NOAA 20 (JPSS-1)        
1 43013U 17073A   26060.44065059  .00000089  00000+0  63003-4 0  9998
2 43013  98.7682   0.9103 0000833 147.1557 212.9671 14.19533575429185
